[
    {
        "Altitude(m)": 577150.1645980394,
        "Argument of Periapsis(deg)": -0.015068773855314936,
        "Eccentricity": 0.0,
        "Inclination(deg)": 97.0,
        "Latitude(deg)": -36.12644115837528,
        "Longitude(deg)": 163.33316693564475,
        "Mean Anomaly(deg)": 216.18189551279167,
        "RAAN(deg)": 90.00396470241235,
        "Satellite Name": "Starlink Shell 3 1789",
        "Satellite Number": 1789,
        "Semi-Major Axis(m)": 6938478.169268562,
        "Time(s)": 380
    },
    {
        "Altitude(m)": 577402.5940975442,
        "Argument of Periapsis(deg)": -0.015465320535717962,
        "Eccentricity": 0.0,
        "Inclination(deg)": 97.0,
        "Latitude(deg)": -36.74470686438206,
        "Longitude(deg)": 163.174363730395,
        "Mean Anomaly(deg)": 216.8073717104967,
        "RAAN(deg)": 90.00406903668636,
        "Satellite Name": "Starlink Shell 3 1789",
        "Satellite Number": 1789,
        "Semi-Major Axis(m)": 6938478.169268562,
        "Time(s)": 390
    },
    {
        "Altitude(m)": 577655.6586749679,
        "Argument of Periapsis(deg)": -0.015861867216120987,
        "Eccentricity": 0.0,
        "Inclination(deg)": 97.0,
        "Latitude(deg)": -37.36276280486159,
        "Longitude(deg)": 163.01367596522564,
        "Mean Anomaly(deg)": 217.43284790820178,
        "RAAN(deg)": 90.00417337096036,
        "Satellite Name": "Starlink Shell 3 1789",
        "Satellite Number": 1789,
        "Semi-Major Axis(m)": 6938478.169268562,
        "Time(s)": 400
    },
    {
        "Altitude(m)": 577909.2607054373,
        "Argument of Periapsis(deg)": -0.01625841389652401,
        "Eccentricity": 0.0,
        "Inclination(deg)": 97.0,
        "Latitude(deg)": -37.980604063545016,
        "Longitude(deg)": 162.85103021246775,
        "Mean Anomaly(deg)": 218.0583241059068,
        "RAAN(deg)": 90.00427770523437,
        "Satellite Name": "Starlink Shell 3 1789",
        "Satellite Number": 1789,
        "Semi-Major Axis(m)": 6938478.169268562,
        "Time(s)": 410
    },
    {
        "Altitude(m)": 578163.3021572581,
        "Argument of Periapsis(deg)": -0.016654960576927034,
        "Eccentricity": 0.0,
        "Inclination(deg)": 97.0,
        "Latitude(deg)": -38.59822555888691,
        "Longitude(deg)": 162.68634921703722,
        "Mean Anomaly(deg)": 218.68380030361183,
        "RAAN(deg)": 90.00438203950837,
        "Satellite Name": "Starlink Shell 3 1789",
        "Satellite Number": 1789,
        "Semi-Major Axis(m)": 6938478.169268562,
        "Time(s)": 420
    },
    {
        "Altitude(m)": 578417.6846364147,
        "Argument of Periapsis(deg)": -0.01705150725733006,
        "Eccentricity": 0.0,
        "Inclination(deg)": 97.0,
        "Latitude(deg)": -39.21562203161084,
        "Longitude(deg)": 162.51955219994178,
        "Mean Anomaly(deg)": 219.3092765013169,
        "RAAN(deg)": 90.0044863737824,
        "Satellite Name": "Starlink Shell 3 1789",
        "Satellite Number": 1789,
        "Semi-Major Axis(m)": 6938478.169268562,
        "Time(s)": 430
    },
    {
        "Altitude(m)": 578672.3094311256,
        "Argument of Periapsis(deg)": -0.017448053937733084,
        "Eccentricity": 0.0,
        "Inclination(deg)": 97.0,
        "Latitude(deg)": -39.832788031330566,
        "Longitude(deg)": 162.3505551475227,
        "Mean Anomaly(deg)": 219.93475269902194,
        "RAAN(deg)": 90.0045907080564,
        "Satellite Name": "Starlink Shell 3 1789",
        "Satellite Number": 1789,
        "Semi-Major Axis(m)": 6938478.169268562,
        "Time(s)": 440
    },
    {
        "Altitude(m)": 578927.0775565904,
        "Argument of Periapsis(deg)": -0.017844600618136107,
        "Eccentricity": 0.0,
        "Inclination(deg)": 97.0,
        "Latitude(deg)": -40.44971790216501,
        "Longitude(deg)": 162.1792695723604,
        "Mean Anomaly(deg)": 220.560228896727,
        "RAAN(deg)": 90.0046950423304,
        "Satellite Name": "Starlink Shell 3 1789",
        "Satellite Number": 1789,
        "Semi-Major Axis(m)": 6938478.169268562,
        "Time(s)": 450
    },
    {
        "Altitude(m)": 579181.8897997414,
        "Argument of Periapsis(deg)": -0.018241147298539134,
        "Eccentricity": 0.0,
        "Inclination(deg)": 97.0,
        "Latitude(deg)": -41.06640576726827,
        "Longitude(deg)": 162.0056027702733,
        "Mean Anomaly(deg)": 221.18570509443202,
        "RAAN(deg)": 90.00479937660441,
        "Satellite Name": "Starlink Shell 3 1789",
        "Satellite Number": 1789,
        "Semi-Major Axis(m)": 6938478.169268562,
        "Time(s)": 460
    },
    {
        "Altitude(m)": 579436.6467640974,
        "Argument of Periapsis(deg)": -0.018637693978942157,
        "Eccentricity": 0.0,
        "Inclination(deg)": 97.0,
        "Latitude(deg)": -41.68284551217906,
        "Longitude(deg)": 161.8294580590941,
        "Mean Anomaly(deg)": 221.81118129213706,
        "RAAN(deg)": 90.00490371087842,
        "Satellite Name": "Starlink Shell 3 1789",
        "Satellite Number": 1789,
        "Semi-Major Axis(m)": 6938478.169268562,
        "Time(s)": 470
    },
    {
        "Altitude(m)": 579691.2489146271,
        "Argument of Periapsis(deg)": -0.019034240659345183,
        "Eccentricity": 0.0,
        "Inclination(deg)": 97.0,
        "Latitude(deg)": -42.299030766883796,
        "Longitude(deg)": 161.6507334847672,
        "Mean Anomaly(deg)": 222.43665748984213,
        "RAAN(deg)": 90.00500804515244,
        "Satellite Name": "Starlink Shell 3 1789",
        "Satellite Number": 1789,
        "Semi-Major Axis(m)": 6938478.169268562,
        "Time(s)": 480
    },
    {
        "Altitude(m)": 579945.5966226542,
        "Argument of Periapsis(deg)": -0.019430787339748207,
        "Eccentricity": 0.0,
        "Inclination(deg)": 97.0,
        "Latitude(deg)": -42.91495488648643,
        "Longitude(deg)": 161.46932201876925,
        "Mean Anomaly(deg)": 223.0621336875471,
        "RAAN(deg)": 90.00511237942644,
        "Satellite Name": "Starlink Shell 3 1789",
        "Satellite Number": 1789,
        "Semi-Major Axis(m)": 6938478.169268562,
        "Time(s)": 490
    },
    {
        "Altitude(m)": 580199.5902107521,
        "Argument of Periapsis(deg)": -0.019827334020151237,
        "Eccentricity": 0.0,
        "Inclination(deg)": 97.0,
        "Latitude(deg)": -43.5306109303572,
        "Longitude(deg)": 161.28511173206223,
        "Mean Anomaly(deg)": 223.68760988525221,
        "RAAN(deg)": 90.00521671370043,
        "Satellite Name": "Starlink Shell 3 1789",
        "Satellite Number": 1789,
        "Semi-Major Axis(m)": 6938478.169268562,
        "Time(s)": 500
    },
    {
        "Altitude(m)": 580453.1299975823,
        "Argument of Periapsis(deg)": -0.020223880700554257,
        "Eccentricity": 0.0,
        "Inclination(deg)": 97.0,
        "Latitude(deg)": -44.14599163962141,
        "Longitude(deg)": 161.09798443059555,
        "Mean Anomaly(deg)": 224.31308608295726,
        "RAAN(deg)": 90.00532104797446,
        "Satellite Name": "Starlink Shell 3 1789",
        "Satellite Number": 1789,
        "Semi-Major Axis(m)": 6938478.169268562,
        "Time(s)": 510
    },
    {
        "Altitude(m)": 580706.1163427357,
        "Argument of Periapsis(deg)": -0.020620427380957283,
        "Eccentricity": 0.0,
        "Inclination(deg)": 97.0,
        "Latitude(deg)": -44.76108941284034,
        "Longitude(deg)": 160.90781577576868,
        "Mean Anomaly(deg)": 224.9385622806622,
        "RAAN(deg)": 90.00542538224846,
        "Satellite Name": "Starlink Shell 3 1789",
        "Satellite Number": 1789,
        "Semi-Major Axis(m)": 6938478.169268562,
        "Time(s)": 520
    },
    {
        "Altitude(m)": 580958.4496914534,
        "Argument of Periapsis(deg)": -0.021016974061360306,
        "Eccentricity": 0.0,
        "Inclination(deg)": 97.0,
        "Latitude(deg)": -45.37589627971514,
        "Longitude(deg)": 160.7144753744115,
        "Mean Anomaly(deg)": 225.56403847836734,
        "RAAN(deg)": 90.00552971652247,
        "Satellite Name": "Starlink Shell 3 1789",
        "Satellite Number": 1789,
        "Semi-Major Axis(m)": 6938478.169268562,
        "Time(s)": 530
    },
    {
        "Altitude(m)": 581210.0306192952,
        "Argument of Periapsis(deg)": -0.021413520741763333,
        "Eccentricity": 0.0,
        "Inclination(deg)": 97.0,
        "Latitude(deg)": -45.99040387262276,
        "Longitude(deg)": 160.51782532256286,
        "Mean Anomaly(deg)": 226.18951467607232,
        "RAAN(deg)": 90.00563405079647,
        "Satellite Name": "Starlink Shell 3 1789",
        "Satellite Number": 1789,
        "Semi-Major Axis(m)": 6938478.169268562,
        "Time(s)": 540
    },
    {
        "Altitude(m)": 581460.759876697,
        "Argument of Periapsis(deg)": -0.021810067422166356,
        "Eccentricity": 0.0,
        "Inclination(deg)": 97.0,
        "Latitude(deg)": -46.60460339578671,
        "Longitude(deg)": 160.31772022564414,
        "Mean Anomaly(deg)": 226.81499087377736,
        "RAAN(deg)": 90.0057383850705,
        "Satellite Name": "Starlink Shell 3 1789",
        "Satellite Number": 1789,
        "Semi-Major Axis(m)": 6938478.169268562,
        "Time(s)": 550
    },
    {
        "Altitude(m)": 581710.538433358,
        "Argument of Periapsis(deg)": -0.022206614102569383,
        "Eccentricity": 0.0,
        "Inclination(deg)": 97.0,
        "Latitude(deg)": -47.218485591845784,
        "Longitude(deg)": 160.11400717866692,
        "Mean Anomaly(deg)": 227.4404670714825,
        "RAAN(deg)": 90.0058427193445,
        "Satellite Name": "Starlink Shell 3 1789",
        "Satellite Number": 1789,
        "Semi-Major Axis(m)": 6938478.169268562,
        "Time(s)": 560
    }
]